0 EXPLORER 36 (GEOS 2)
1 03093U 68002A   13282.01850249 -.00000060  00000-0  47210-4 0  1870
2 03093 105.7918 045.5782 0318267 066.3925 068.8768 12.83490104143167
0 EXPLORER 36 (GEOS 2)
1 03093U 68002A   13284.11206372 -.00000105  00000-0 -10218-3 0  1884
2 03093 105.7922 048.5108 0318311 062.9913 022.3110 12.83490642143439
0 EXPLORER 36 (GEOS 2)
1 03093U 68002A   13286.13685826 -.00000042  00000-0  11082-3 0  1893
2 03093 105.7927 051.3472 0318351 059.7012 018.0146 12.83489955143692
0 EXPLORER 36 (GEOS 2)
1 03093U 68002A   13288.46714346 -.00000056  00000-0  61178-4 0  1900
2 03093 105.7932 054.6116 0318364 055.9055 345.2611 12.83490292143999
0 EXPLORER 36 (GEOS 2)
1 03093U 68002A   13291.12296267 -.00000068  00000-0  23762-4 0  1915
2 03093 105.7935 058.3322 0318430 051.5948 016.6452 12.83490385144333
0 EXPLORER 36 (GEOS 2)
1 03093U 68002A   13293.37623501  .00000011  00000-0  28868-3 0  1928
2 03093 105.7935 061.4890 0318488 047.9340 348.0459 12.83489844144625
0 EXPLORER 36 (GEOS 2)
1 03093U 68002A   13295.48159293 -.00000065  00000-0  32238-4 0  1932
2 03093 105.7934 064.4386 0318519 044.5053 355.9967 12.83490720144891
